OBJECT_NAME,OBJECT_ID,EPOCH,MEAN_MOTION,ECCENTRICITY,INCLINATION,RA_OF_ASC_NODE,ARG_OF_PERICENTER,MEAN_ANOMALY,EPHEMERIS_TYPE,CLASSIFICATION_TYPE,NORAD_CAT_ID,ELEMENT_SET_NO,REV_AT_EPOCH,BSTAR,MEAN_MOTION_DOT,MEAN_MOTION_DDOT
COSMOS 2058,1990-010A,2026-07-19T05:31:37.030944,15.12170696,.00082455,82.4674,277.7520,233.0749,126.9727,0,U,20465,999,96211,.1098158E-3,.1924E-4,0
SL-14 R/B,1990-010B,2026-07-19T06:29:37.641120,14.83664361,.00186195,82.5038,143.8159,222.8886,137.0878,0,U,20466,999,94799,.20285494E-4,.192E-5,0
SL-14 R/B,1990-018B,2026-07-19T05:06:04.393440,14.82235502,.0016738,82.5215,100.1753,24.2738,335.9261,0,U,20511,999,94206,.21337516E-4,.194E-5,0
HST,1990-037B,2026-07-19T05:10:38.563104,15.31084186,.00021419,28.4722,221.6112,143.1393,216.9350,0,U,20580,999,79348,.90734233E-4,.3033E-4,0
SL-16 R/B,1990-046B,2026-07-19T06:05:51.718848,14.15027329,.00122964,70.9993,21.5983,107.1393,253.1077,0,U,20625,999,86700,.17604306E-3,.294E-5,0
COSMOS 2084,1990-055A,2026-07-19T04:40:29.552736,15.06231320,.00085655,62.7877,246.8338,321.9448,38.1047,0,U,20663,999,95612,.61322334E-4,.7E-5,0
SL-6 R/B(2),1990-055D,2026-07-19T07:04:11.898624,15.04097948,.00457897,62.7808,166.1089,9.5376,350.6582,0,U,20666,999,95798,.86276663E-4,.1017E-4,0
SL-8 R/B,1990-078B,2026-07-19T05:29:00.915648,14.93640467,.03430889,82.9033,132.6594,289.7978,66.6558,0,U,20775,999,82890,.20795343E-3,.7344E-4,0
SL-8 R/B,1991-006B,2026-07-19T04:18:47.844288,13.77509774,.00232113,82.9404,72.2308,29.7565,87.5806,0,U,21088,999,78217,.56674861E-4,.72E-6,0
OKEAN-3,1991-039A,2026-07-19T07:26:20.965632,15.05448537,.00127813,82.5148,209.2273,238.7976,121.1999,0,U,21397,999,88483,.11389338E-3,.1666E-4,0
COSMOS 2151,1991-042A,2026-07-19T06:28:06.249792,15.00519722,.00115796,82.4983,316.7192,341.2838,18.7959,0,U,21422,999,88292,.75679654E-4,.982E-5,0
SL-14 R/B,1991-042B,2026-07-19T05:25:19.827552,14.81919307,.00173378,82.4930,96.8516,163.8145,196.3627,0,U,21423,999,87255,.18445386E-4,.17E-5,0
ERS-1,1991-050A,2026-07-19T01:38:50.855424,14.39535247,.00321557,98.7796,221.5452,170.3652,189.8159,0,U,21574,999,83463,.74471348E-4,.187E-5,0
ARIANE 40 R/B,1991-050F,2026-07-19T03:42:26.412768,14.42973078,.00039779,98.1860,247.3234,52.5890,307.5662,0,U,21610,999,83795,.41215316E-4,.96E-6,0
INTERCOSMOS 25,1991-086A,2026-07-19T07:16:16.248576,12.12242150,.14847866,82.6001,230.3753,193.0617,162.7650,0,U,21819,999,51263,.67646512E-4,.36E-5,0
SL-8 R/B,1992-008B,2026-07-19T04:24:29.187360,13.75984427,.00358588,82.9276,169.9984,125.7820,245.2491,0,U,21876,999,72750,.91371913E-4,.105E-5,0
SL-8 R/B,1992-020B,2026-07-19T03:28:10.525728,13.75549936,.0027837,82.9277,56.1156,292.0301,191.0264,0,U,21938,999,71920,-.2314803E-4,-.7E-7,0
USA 81,1992-023A,2026-07-19T03:06:03.675744,14.32405536,.0001808,85.0048,55.5666,65.1235,295.0145,0,U,21949,999,11360,.22647639E-4,.81E-6,0
COSMOS 2219,1992-076A,2026-07-19T03:55:54.006528,14.14107201,.00184956,71.0609,103.2279,351.5584,8.5224,0,U,22219,999,73696,-.11394083E-3,-.264E-5,0
SL-16 R/B,1992-076B,2026-07-19T05:08:25.317888,14.16878023,.00150338,71.0000,271.3155,257.0982,118.9753,0,U,22220,999,74046,-.26993762E-4,-.102E-5,0
COSMOS 2221,1992-080A,2026-07-19T07:10:51.747456,14.96610294,.00158929,82.5049,152.9987,107.6745,252.6214,0,U,22236,999,80047,.69606298E-4,.821E-5,0
SL-16 R/B,1992-093B,2026-07-19T02:44:38.284800,14.15464245,.00021747,71.0214,88.3682,123.1560,236.9772,0,U,22285,999,73175,-.10804496E-3,-.259E-5,0
COSMOS 2228,1992-094A,2026-07-19T05:23:57.660288,14.97682216,.00166117,82.5186,111.3554,214.6559,145.3583,0,U,22286,999,79574,.72125358E-4,.873E-5,0
SL-16 R/B,1993-016B,2026-07-19T05:44:22.248096,14.15315037,.00086555,71.0087,298.8871,130.7872,229.4003,0,U,22566,999,72078,.17581881E-3,.295E-5,0
COSMOS 2242,1993-024A,2026-07-19T06:23:01.330368,14.96991406,.00149137,82.5201,140.8524,217.7984,142.2192,0,U,22626,999,80007,.70019384E-4,.833E-5,0
SL-16 R/B,1993-059B,2026-07-19T02:38:12.323040,14.17249697,.00168789,70.9901,93.9855,2.7334,357.3879,0,U,22803,999,69815,.86295677E-4,.126E-5,0
ARIANE 40 R/B,1993-061H,2026-07-19T04:28:39.948672,14.32919398,.00095621,98.4802,266.3764,252.4937,107.5202,0,U,22830,999,71293,.3625783E-4,.56E-6,0
COSMOS 2278,1994-023A,2026-07-19T05:07:36.802560,14.14394204,.00094187,71.0517,259.9183,199.4985,160.5778,0,U,23087,999,66340,.98146871E-4,.141E-5,0
SL-16 R/B,1994-023B,2026-07-19T04:49:32.566368,14.15026431,.00013107,70.9991,154.6991,112.5541,247.5721,0,U,23088,999,66469,.17258532E-3,.287E-5,0
SL-16 R/B,1994-074B,2026-07-19T07:57:06.007392,14.79526234,.00074578,97.6985,225.7115,142.2296,234.2358,0,U,23343,999,70671,.28890519E-4,.167E-5,0
