COSMOS 2058             
1 20465U 90010A   26200.23028971  .00001924  00000+0  10982-3 0  9997
2 20465  82.4674 277.7520 0008245 233.0749 126.9727 15.12170696962118
SL-14 R/B               
1 20466U 90010B   26200.27057455  .00000192  00000+0  20285-4 0  9995
2 20466  82.5038 143.8159 0018619 222.8886 137.0878 14.83664361947992
SL-14 R/B               
1 20511U 90018B   26200.21255085  .00000194  00000+0  21338-4 0  9999
2 20511  82.5215 100.1753 0016738  24.2738 335.9261 14.82235502942064
HST                     
1 20580U 90037B   26200.21572411  .00003033  00000+0  90734-4 0  9992
2 20580  28.4722 221.6112 0002141 143.1393 216.9350 15.31084186793483
SL-16 R/B               
1 20625U 90046B   26200.25407082  .00000294  00000+0  17604-3 0  9997
2 20625  70.9993  21.5983 0012296 107.1393 253.1077 14.15027329867006
COSMOS 2084             
1 20663U 90055A   26200.19478649  .00000700  00000+0  61322-4 0  9998
2 20663  62.7877 246.8338 0008565 321.9448  38.1047 15.06231320956124
SL-6 R/B(2)             
1 20666U 90055D   26200.29458216  .00001017  00000+0  86277-4 0  9998
2 20666  62.7808 166.1089 0045789   9.5376 350.6582 15.04097948957981
SL-8 R/B                
1 20775U 90078B   26200.22848282  .00007344  00000+0  20795-3 0  9994
2 20775  82.9033 132.6594 0343088 289.7978  66.6558 14.93640467828901
SL-8 R/B                
1 21088U 91006B   26200.17972042  .00000072  00000+0  56675-4 0  9998
2 21088  82.9404  72.2308 0023211  29.7565  87.5806 13.77509774782172
OKEAN-3                 
1 21397U 91039A   26200.30996488  .00001666  00000+0  11389-3 0  9994
2 21397  82.5148 209.2273 0012781 238.7976 121.1999 15.05448537884833
COSMOS 2151             
1 21422U 91042A   26200.26951678  .00000982  00000+0  75680-4 0  9999
2 21422  82.4983 316.7192 0011579 341.2838  18.7959 15.00519722882928
SL-14 R/B               
1 21423U 91042B   26200.22592393  .00000170  00000+0  18445-4 0  9996
2 21423  82.4930  96.8516 0017337 163.8145 196.3627 14.81919307872558
ERS-1                   
1 21574U 91050A   26200.06864416  .00000187  00000+0  74471-4 0  9991
2 21574  98.7796 221.5452 0032155 170.3652 189.8159 14.39535247834636
ARIANE 40 R/B           
1 21610U 91050F   26200.15447237  .00000096  00000+0  41215-4 0  9999
2 21610  98.1860 247.3234 0003977  52.5890 307.5662 14.42973078837950
INTERCOSMOS 25          
1 21819U 91086A   26200.30296584  .00000360  00000+0  67647-4 0  9994
2 21819  82.6001 230.3753 1484786 193.0617 162.7650 12.12242150512632
SL-8 R/B                
1 21876U 92008B   26200.18367115  .00000105  00000+0  91372-4 0  9996
2 21876  82.9276 169.9984 0035858 125.7820 245.2491 13.75984427727508
SL-8 R/B                
1 21938U 92020B   26200.14456627 -.00000007  00000+0 -23148-4 0  9991
2 21938  82.9277  56.1156 0027837 292.0301 191.0264 13.75549936719202
USA 81                  
1 21949U 92023A   26200.12920921  .00000081  00000+0  22648-4 0  9991
2 21949  85.0048  55.5666 0001808  65.1235 295.0145 14.32405536113604
COSMOS 2219             
1 22219U 92076A   26200.16381952 -.00000264  00000+0 -11394-3 0  9999
2 22219  71.0609 103.2279 0018495 351.5584   8.5224 14.14107201736966
SL-16 R/B               
1 22220U 92076B   26200.21418192 -.00000102  00000+0 -26994-4 0  9998
2 22220  71.0000 271.3155 0015033 257.0982 118.9753 14.16878023740462
COSMOS 2221             
1 22236U 92080A   26200.29921004  .00000821  00000+0  69606-4 0  9992
2 22236  82.5049 152.9987 0015892 107.6745 252.6214 14.96610294800474
SL-16 R/B               
1 22285U 92093B   26200.11433200 -.00000259  00000+0 -10804-3 0  9999
2 22285  71.0214  88.3682 0002174 123.1560 236.9772 14.15464245731758
COSMOS 2228             
1 22286U 92094A   26200.22497292  .00000873  00000+0  72125-4 0  9999
2 22286  82.5186 111.3554 0016611 214.6559 145.3583 14.97682216795746
SL-16 R/B               
1 22566U 93016B   26200.23914639  .00000295  00000+0  17582-3 0  9998
2 22566  71.0087 298.8871 0008655 130.7872 229.4003 14.15315037720785
COSMOS 2242             
1 22626U 93024A   26200.26598762  .00000833  00000+0  70019-4 0  9995
2 22626  82.5201 140.8524 0014913 217.7984 142.2192 14.96991406800073
SL-16 R/B               
1 22803U 93059B   26200.10986485  .00000126  00000+0  86296-4 0  9995
2 22803  70.9901  93.9855 0016878   2.7334 357.3879 14.17249697698152
ARIANE 40 R/B           
1 22830U 93061H   26200.18657348  .00000056  00000+0  36258-4 0  9994
2 22830  98.4802 266.3764 0009562 252.4937 107.5202 14.32919398712934
COSMOS 2278             
1 23087U 94023A   26200.21362040  .00000141  00000+0  98147-4 0  9994
2 23087  71.0517 259.9183 0009418 199.4985 160.5778 14.14394204663402
SL-16 R/B               
1 23088U 94023B   26200.20107137  .00000287  00000+0  17259-3 0  9993
2 23088  70.9991 154.6991 0001310 112.5541 247.5721 14.15026431664693
SL-16 R/B               
1 23343U 94074B   26200.33131953  .00000167  00000+0  28891-4 0  9992
2 23343  97.6985 225.7115 0007457 142.2296 234.2358 14.79526234706714
